KUIPER-00156            
1 65775U 25217P   26065.29181828  .00004580  00000+0  62929-3 0  9992
2 65775  51.9027  40.6485 0000805  89.0794 271.0260 14.79937579 24615
KUIPER-00158            
1 65776U 25217Q   26065.22711330  .00006662  00000+0  88998-3 0  9990
2 65776  51.8973  60.7880 0001125  46.2894 313.8162 14.80503059 24338
KUIPER-00163            
1 65777U 25217R   26065.25002315  .00019417  00000+0  17000-2 0  9997
2 65777  51.8973  62.4758 0002433  35.1385 111.1797 14.96697309  5642
KUIPER-00165            
1 65778U 25217S   26065.21351366 -.00002513  00000+0 -30074-3 0  9995
2 65778  51.9013  50.9678 0000744  92.8365 267.2682 14.79929322 24464
KUIPER-00166            
1 65779U 25217T   26064.31536718  .00005827  00000+0  79159-3 0  9998
2 65779  51.9042  42.4609 0000677  95.0603 265.0437 14.79992371 24505
KUIPER-00167            
1 65780U 25217U   26065.20276267 -.00002798  00000+0 -33811-3 0  9990
2 65780  51.8990  60.9846 0000610  21.4533 338.6455 14.79944071 24329
KUIPER-00168            
1 65781U 25217V   26065.28914602  .00005737  00000+0  78108-3 0  9993
2 65781  51.9015  43.1363 0001025  82.0294 278.0785 14.79925832 24589
KUIPER-00169            
1 65782U 25217W   26065.14942425  .00004726  00000+0  65034-3 0  9994
2 65782  51.9015  48.7635 0000791  93.0798 267.0255 14.79813971 24493
KUIPER-00170            
1 65783U 25217X   26065.21044939  .00000574  00000+0  10432-3 0  9995
2 65783  51.8994  53.4691 0000759  98.3119 261.7930 14.79922492 24437
KUIPER-00172            
1 65785U 25217Z   26065.25002315 -.00002303  00000+0 -24100-3 0  9994
2 65785  51.9003  34.0681 0003180 289.0107 188.0189 14.84928626  3202
KUIPER-00173            
1 65786U 25217AA  26065.24807034 -.00156430  00000+0 -20182-1 0  9990
2 65786  51.9020  47.6072 0000684  82.2826 277.8215 14.81535748 24513
KUIPER-00174            
1 65787U 25217AB  26065.18785001  .00003724  00000+0  51721-3 0  9993
2 65787  51.9038  43.6098 0001205  65.9306 294.1782 14.79939240 24566
KUIPER-00176            
1 65788U 25217AC  26065.17149688  .00000914  00000+0  14892-3 0  9994
2 65788  51.9002  58.6544 0000769  87.7483 272.3568 14.79925302 24353
KUIPER-00101            
1 65947U 25228A   26064.30587848  .00001277  00000+0  19647-3 0  9997
2 65947  51.9032  19.9631 0000569 116.5320 243.5700 14.79926940 22589
KUIPER-00113            
1 65948U 25228B   26065.08778100 -.00003839  00000+0 -47469-3 0  9998
2 65948  51.9001  11.5194 0000613 100.5606 259.5425 14.79950095 22767
KUIPER-00117            
1 65949U 25228C   26065.25400121 -.00000279  00000+0 -75303-5 0  9998
2 65949  51.9054  13.2925 0001166  68.8112 291.2975 14.79932164 22758
KUIPER-00121            
1 65950U 25228D   26065.02297167  .00003586  00000+0  49914-3 0  9998
2 65950  51.9019   9.3042 0001208 108.4687 251.6407 14.79934695 22797
