[{"OBJECT_NAME":"KUIPER-00156","OBJECT_ID":"2025-217P","EPOCH":"2026-03-06T07:00:13.099392","MEAN_MOTION":14.79937579,"ECCENTRICITY":8.052e-5,"INCLINATION":51.9027,"RA_OF_ASC_NODE":40.6485,"ARG_OF_PERICENTER":89.0794,"MEAN_ANOMALY":271.026,"EPHEMERIS_TYPE":0,"CLASSIFICATION_TYPE":"U","NORAD_CAT_ID":65775,"ELEMENT_SET_NO":999,"REV_AT_EPOCH":2461,"BSTAR":0.00062928885,"MEAN_MOTION_DOT":4.58e-5,"MEAN_MOTION_DDOT":0},{"OBJECT_NAME":"KUIPER-00158","OBJECT_ID":"2025-217Q","EPOCH":"2026-03-06T05:27:02.589120","MEAN_MOTION":14.80503059,"ECCENTRICITY":0.00011259,"INCLINATION":51.8973,"RA_OF_ASC_NODE":60.788,"ARG_OF_PERICENTER":46.2894,"MEAN_ANOMALY":313.8162,"EPHEMERIS_TYPE":0,"CLASSIFICATION_TYPE":"U","NORAD_CAT_ID":65776,"ELEMENT_SET_NO":999,"REV_AT_EPOCH":2433,"BSTAR":0.00088998141,"MEAN_MOTION_DOT":6.662e-5,"MEAN_MOTION_DDOT":0},{"OBJECT_NAME":"KUIPER-00163","OBJECT_ID":"2025-217R","EPOCH":"2026-03-06T06:00:02.000160","MEAN_MOTION":14.96697309,"ECCENTRICITY":0.00024337,"INCLINATION":51.8973,"RA_OF_ASC_NODE":62.4758,"ARG_OF_PERICENTER":35.1385,"MEAN_ANOMALY":111.1797,"EPHEMERIS_TYPE":0,"CLASSIFICATION_TYPE":"U","NORAD_CAT_ID":65777,"ELEMENT_SET_NO":999,"REV_AT_EPOCH":564,"BSTAR":0.0016999528,"MEAN_MOTION_DOT":0.00019417,"MEAN_MOTION_DDOT":0},{"OBJECT_NAME":"KUIPER-00165","OBJECT_ID":"2025-217S","EPOCH":"2026-03-06T05:07:27.580224","MEAN_MOTION":14.79929322,"ECCENTRICITY":7.446e-5,"INCLINATION":51.9013,"RA_OF_ASC_NODE":50.9678,"ARG_OF_PERICENTER":92.8365,"MEAN_ANOMALY":267.2682,"EPHEMERIS_TYPE":0,"CLASSIFICATION_TYPE":"U","NORAD_CAT_ID":65778,"ELEMENT_SET_NO":999,"REV_AT_EPOCH":2446,"BSTAR":-0.00030073655,"MEAN_MOTION_DOT":-2.513e-5,"MEAN_MOTION_DDOT":0},{"OBJECT_NAME":"KUIPER-00166","OBJECT_ID":"2025-217T","EPOCH":"2026-03-05T07:34:07.724352","MEAN_MOTION":14.79992371,"ECCENTRICITY":6.772e-5,"INCLINATION":51.9042,"RA_OF_ASC_NODE":42.4609,"ARG_OF_PERICENTER":95.0603,"MEAN_ANOMALY":265.0437,"EPHEMERIS_TYPE":0,"CLASSIFICATION_TYPE":"U","NORAD_CAT_ID":65779,"ELEMENT_SET_NO":999,"REV_AT_EPOCH":2450,"BSTAR":0.00079158624,"MEAN_MOTION_DOT":5.827e-5,"MEAN_MOTION_DDOT":0},{"OBJECT_NAME":"KUIPER-00167","OBJECT_ID":"2025-217U","EPOCH":"2026-03-06T04:51:58.694688","MEAN_MOTION":14.79944071,"ECCENTRICITY":6.107e-5,"INCLINATION":51.899,"RA_OF_ASC_NODE":60.9846,"ARG_OF_PERICENTER":21.4533,"MEAN_ANOMALY":338.6455,"EPHEMERIS_TYPE":0,"CLASSIFICATION_TYPE":"U","NORAD_CAT_ID":65780,"ELEMENT_SET_NO":999,"REV_AT_EPOCH":2432,"BSTAR":-0.00033810539,"MEAN_MOTION_DOT":-2.798e-5,"MEAN_MOTION_DDOT":0},{"OBJECT_NAME":"KUIPER-00168","OBJECT_ID":"2025-217V","EPOCH":"2026-03-06T06:56:22.216128","MEAN_MOTION":14.79925832,"ECCENTRICITY":0.00010252,"INCLINATION":51.9015,"RA_OF_ASC_NODE":43.1363,"ARG_OF_PERICENTER":82.0294,"MEAN_ANOMALY":278.0785,"EPHEMERIS_TYPE":0,"CLASSIFICATION_TYPE":"U","NORAD_CAT_ID":65781,"ELEMENT_SET_NO":999,"REV_AT_EPOCH":2458,"BSTAR":0.00078108366,"MEAN_MOTION_DOT":5.737e-5,"MEAN_MOTION_DDOT":0},{"OBJECT_NAME":"KUIPER-00169","OBJECT_ID":"2025-217W","EPOCH":"2026-03-06T03:35:10.255200","MEAN_MOTION":14.79813971,"ECCENTRICITY":7.91e-5,"INCLINATION":51.9015,"RA_OF_ASC_NODE":48.7635,"ARG_OF_PERICENTER":93.0798,"MEAN_ANOMALY":267.0255,"EPHEMERIS_TYPE":0,"CLASSIFICATION_TYPE":"U","NORAD_CAT_ID":65782,"ELEMENT_SET_NO":999,"REV_AT_EPOCH":2449,"BSTAR":0.00065034353,"MEAN_MOTION_DOT":4.726e-5,"MEAN_MOTION_DDOT":0},{"OBJECT_NAME":"KUIPER-00170","OBJECT_ID":"2025-217X","EPOCH":"2026-03-06T05:03:02.827296","MEAN_MOTION":14.79922492,"ECCENTRICITY":7.59e-5,"INCLINATION":51.8994,"RA_OF_ASC_NODE":53.4691,"ARG_OF_PERICENTER":98.3119,"MEAN_ANOMALY":261.793,"EPHEMERIS_TYPE":0,"CLASSIFICATION_TYPE":"U","NORAD_CAT_ID":65783,"ELEMENT_SET_NO":999,"REV_AT_EPOCH":2443,"BSTAR":0.00010431703,"MEAN_MOTION_DOT":5.74e-6,"MEAN_MOTION_DDOT":0},{"OBJECT_NAME":"KUIPER-00172","OBJECT_ID":"2025-217Z","EPOCH":"2026-03-06T06:00:02.000160","MEAN_MOTION":14.84928626,"ECCENTRICITY":0.00031801,"INCLINATION":51.9003,"RA_OF_ASC_NODE":34.0681,"ARG_OF_PERICENTER":289.0107,"MEAN_ANOMALY":188.0189,"EPHEMERIS_TYPE":0,"CLASSIFICATION_TYPE":"U","NORAD_CAT_ID":65785,"ELEMENT_SET_NO":999,"REV_AT_EPOCH":320,"BSTAR":-0.00024099745,"MEAN_MOTION_DOT":-2.303e-5,"MEAN_MOTION_DDOT":0},{"OBJECT_NAME":"KUIPER-00173","OBJECT_ID":"2025-217AA","EPOCH":"2026-03-06T05:57:13.277376","MEAN_MOTION":14.81535748,"ECCENTRICITY":6.849e-5,"INCLINATION":51.902,"RA_OF_ASC_NODE":47.6072,"ARG_OF_PERICENTER":82.2826,"MEAN_ANOMALY":277.8215,"EPHEMERIS_TYPE":0,"CLASSIFICATION_TYPE":"U","NORAD_CAT_ID":65786,"ELEMENT_SET_NO":999,"REV_AT_EPOCH":2451,"BSTAR":-0.020181918,"MEAN_MOTION_DOT":-0.0015643,"MEAN_MOTION_DDOT":0},{"OBJECT_NAME":"KUIPER-00174","OBJECT_ID":"2025-217AB","EPOCH":"2026-03-06T04:30:30.240864","MEAN_MOTION":14.7993924,"ECCENTRICITY":0.00012053,"INCLINATION":51.9038,"RA_OF_ASC_NODE":43.6098,"ARG_OF_PERICENTER":65.9306,"MEAN_ANOMALY":294.1782,"EPHEMERIS_TYPE":0,"CLASSIFICATION_TYPE":"U","NORAD_CAT_ID":65787,"ELEMENT_SET_NO":999,"REV_AT_EPOCH":2456,"BSTAR":0.00051720985,"MEAN_MOTION_DOT":3.724e-5,"MEAN_MOTION_DDOT":0},{"OBJECT_NAME":"KUIPER-00176","OBJECT_ID":"2025-217AC","EPOCH":"2026-03-06T04:06:57.330432","MEAN_MOTION":14.79925302,"ECCENTRICITY":7.694e-5,"INCLINATION":51.9002,"RA_OF_ASC_NODE":58.6544,"ARG_OF_PERICENTER":87.7483,"MEAN_ANOMALY":272.3568,"EPHEMERIS_TYPE":0,"CLASSIFICATION_TYPE":"U","NORAD_CAT_ID":65788,"ELEMENT_SET_NO":999,"REV_AT_EPOCH":2435,"BSTAR":0.0001489161,"MEAN_MOTION_DOT":9.14e-6,"MEAN_MOTION_DDOT":0},{"OBJECT_NAME":"KUIPER-00101","OBJECT_ID":"2025-228A","EPOCH":"2026-03-05T07:20:27.900672","MEAN_MOTION":14.7992694,"ECCENTRICITY":5.69e-5,"INCLINATION":51.9032,"RA_OF_ASC_NODE":19.9631,"ARG_OF_PERICENTER":116.532,"MEAN_ANOMALY":243.57,"EPHEMERIS_TYPE":0,"CLASSIFICATION_TYPE":"U","NORAD_CAT_ID":65947,"ELEMENT_SET_NO":999,"REV_AT_EPOCH":2258,"BSTAR":0.00019647,"MEAN_MOTION_DOT":1.277e-5,"MEAN_MOTION_DDOT":0},{"OBJECT_NAME":"KUIPER-00113","OBJECT_ID":"2025-228B","EPOCH":"2026-03-06T02:06:24.278400","MEAN_MOTION":14.79950095,"ECCENTRICITY":6.133e-5,"INCLINATION":51.9001,"RA_OF_ASC_NODE":11.5194,"ARG_OF_PERICENTER":100.5606,"MEAN_ANOMALY":259.5425,"EPHEMERIS_TYPE":0,"CLASSIFICATION_TYPE":"U","NORAD_CAT_ID":65948,"ELEMENT_SET_NO":999,"REV_AT_EPOCH":2276,"BSTAR":-0.00047469458,"MEAN_MOTION_DOT":-3.839e-5,"MEAN_MOTION_DDOT":0},{"OBJECT_NAME":"KUIPER-00117","OBJECT_ID":"2025-228C","EPOCH":"2026-03-06T06:05:45.704544","MEAN_MOTION":14.79932164,"ECCENTRICITY":0.00011663,"INCLINATION":51.9054,"RA_OF_ASC_NODE":13.2925,"ARG_OF_PERICENTER":68.8112,"MEAN_ANOMALY":291.2975,"EPHEMERIS_TYPE":0,"CLASSIFICATION_TYPE":"U","NORAD_CAT_ID":65949,"ELEMENT_SET_NO":999,"REV_AT_EPOCH":2275,"BSTAR":-7.530291e-6,"MEAN_MOTION_DOT":-2.79e-6,"MEAN_MOTION_DDOT":0},{"OBJECT_NAME":"KUIPER-00121","OBJECT_ID":"2025-228D","EPOCH":"2026-03-06T00:33:04.752288","MEAN_MOTION":14.79934695,"ECCENTRICITY":0.00012083,"INCLINATION":51.9019,"RA_OF_ASC_NODE":9.3042,"ARG_OF_PERICENTER":108.4687,"MEAN_ANOMALY":251.6407,"EPHEMERIS_TYPE":0,"CLASSIFICATION_TYPE":"U","NORAD_CAT_ID":65950,"ELEMENT_SET_NO":999,"REV_AT_EPOCH":2279,"BSTAR":0.00049913756,"MEAN_MOTION_DOT":3.586e-5,"MEAN_MOTION_DDOT":0}]
